OBJECT_NAME,OBJECT_ID,EPOCH,MEAN_MOTION,ECCENTRICITY,INCLINATION,RA_OF_ASC_NODE,ARG_OF_PERICENTER,MEAN_ANOMALY,EPHEMERIS_TYPE,CLASSIFICATION_TYPE,NORAD_CAT_ID,ELEMENT_SET_NO,REV_AT_EPOCH,BSTAR,MEAN_MOTION_DOT,MEAN_MOTION_DDOT
GSAT0233 (GALILEO 33),2025-302A,2026-05-12T10:48:29.411424,1.70474342,.00019015,54.3135,103.1487,244.8588,299.0758,0,U,67160,999,251,0,.57E-6,0
GSAT0234 (GALILEO 34),2025-302C,2026-05-14T04:59:57.914016,1.70474268,.00037296,54.3152,103.0978,298.2730,64.6782,0,U,67162,999,260,0,.49E-6,0
